{
  "type": "FeatureCollection",
  "features": [
    {
      "type": "Feature",
      "properties": {
        "norad_id": 29486,
        "name": "GPS BIIRM-2 (PRN 31)",
        "group": "gps-ops",
        "lat": 24.16314352608066,
        "lon": -40.39763578089623,
        "alt_km": 20214.674820160595,
        "timestamp": "2025-12-27T16:33:30.481089+00:00",
        "meta_object_name": "GPS BIIRM-2 (PRN 31)",
        "meta_object_id": "2006-042A",
        "meta_epoch": "2025-12-26T12:05:34.202112",
        "meta_mean_motion": 2.00553566,
        "meta_eccentricity": 0.010727,
        "meta_inclination": 54.6956,
        "meta_ra_of_asc_node": 158.1947,
        "meta_arg_of_pericenter": 52.2681,
        "meta_mean_anomaly": 319.984,
        "meta_ephemeris_type": 0,
        "meta_classification_type": "U",
        "meta_norad_cat_id": 29486,
        "meta_element_set_no": 999,
        "meta_rev_at_epoch": 14093,
        "meta_bstar": 0,
        "meta_mean_motion_dot": 1.08e-06,
        "meta_mean_motion_ddot": 0,
        "tle_line1": "1 29486U 06042A   25360.50386808  .00000108  00000+0  00000+0 0  9992",
        "tle_line2": "2 29486  54.6956 158.1947 0107270  52.2681 319.9840  2.00553566140935"
      },
      "geometry": {
        "type": "Point",
        "coordinates": [
          -40.39763578089623,
          24.16314352608066
        ]
      }
    },
    {
      "type": "Feature",
      "properties": {
        "norad_id": 29601,
        "name": "GPS BIIRM-3 (PRN 12)",
        "group": "gps-ops",
        "lat": -22.756917251532858,
        "lon": 57.92452967287472,
        "alt_km": 20301.641043752956,
        "timestamp": "2025-12-27T16:33:30.481100+00:00",
        "meta_object_name": "GPS BIIRM-3 (PRN 12)",
        "meta_object_id": "2006-052A",
        "meta_epoch": "2025-12-25T21:48:25.793568",
        "meta_mean_motion": 2.00574428,
        "meta_eccentricity": 0.00879901,
        "meta_inclination": 54.968,
        "meta_ra_of_asc_node": 220.8755,
        "meta_arg_of_pericenter": 87.5984,
        "meta_mean_anomaly": 273.4866,
        "meta_ephemeris_type": 0,
        "meta_classification_type": "U",
        "meta_norad_cat_id": 29601,
        "meta_element_set_no": 999,
        "meta_rev_at_epoch": 13993,
        "meta_bstar": 0,
        "meta_mean_motion_dot": 7.2e-07,
        "meta_mean_motion_ddot": 0,
        "tle_line1": "1 29601U 06052A   25359.90863187  .00000072  00000+0  00000+0 0  9994",
        "tle_line2": "2 29601  54.9680 220.8755 0087990  87.5984 273.4866  2.00574428139938"
      },
      "geometry": {
        "type": "Point",
        "coordinates": [
          57.92452967287472,
          -22.756917251532858
        ]
      }
    },
    {
      "type": "Feature",
      "properties": {
        "norad_id": 32260,
        "name": "GPS BIIRM-4 (PRN 15)",
        "group": "gps-ops",
        "lat": -12.12447268808203,
        "lon": 78.16264933908008,
        "alt_km": 20256.04376912688,
        "timestamp": "2025-12-27T16:33:30.481112+00:00",
        "meta_object_name": "GPS BIIRM-4 (PRN 15)",
        "meta_object_id": "2007-047A",
        "meta_epoch": "2025-12-23T05:22:00.882048",
        "meta_mean_motion": 2.00564099,
        "meta_eccentricity": 0.01640403,
        "meta_inclination": 53.9621,
        "meta_ra_of_asc_node": 87.3254,
        "meta_arg_of_pericenter": 85.3777,
        "meta_mean_anomaly": 276.5133,
        "meta_ephemeris_type": 0,
        "meta_classification_type": "U",
        "meta_norad_cat_id": 32260,
        "meta_element_set_no": 999,
        "meta_rev_at_epoch": 13328,
        "meta_bstar": 0,
        "meta_mean_motion_dot": -6e-08,
        "meta_mean_motion_ddot": 0,
        "tle_line1": "1 32260U 07047A   25357.22362132 -.00000006  00000+0  00000+0 0  9999",
        "tle_line2": "2 32260  53.9621  87.3254 0164040  85.3777 276.5133  2.00564099133281"
      },
      "geometry": {
        "type": "Point",
        "coordinates": [
          78.16264933908008,
          -12.12447268808203
        ]
      }
    },
    {
      "type": "Feature",
      "properties": {
        "norad_id": 32384,
        "name": "GPS BIIRM-5 (PRN 29)",
        "group": "gps-ops",
        "lat": 47.794486481712944,
        "lon": 50.97778746381245,
        "alt_km": 20120.413993882656,
        "timestamp": "2025-12-27T16:33:30.481124+00:00",
        "meta_object_name": "GPS BIIRM-5 (PRN 29)",
        "meta_object_id": "2007-062A",
        "meta_epoch": "2025-12-26T06:34:08.123232",
        "meta_mean_motion": 2.00549336,
        "meta_eccentricity": 0.0031409,
        "meta_inclination": 55.1705,
        "meta_ra_of_asc_node": 281.103,
        "meta_arg_of_pericenter": 162.2528,
        "meta_mean_anomaly": 11.0381,
        "meta_ephemeris_type": 0,
        "meta_classification_type": "U",
        "meta_norad_cat_id": 32384,
        "meta_element_set_no": 999,
        "meta_rev_at_epoch": 13204,
        "meta_bstar": 0,
        "meta_mean_motion_dot": -2.8e-07,
        "meta_mean_motion_ddot": 0,
        "tle_line1": "1 32384U 07062A   25360.27370513 -.00000028  00000+0  00000+0 0  9998",
        "tle_line2": "2 32384  55.1705 281.1030 0031409 162.2528  11.0381  2.00549336132049"
      },
      "geometry": {
        "type": "Point",
        "coordinates": [
          50.97778746381245,
          47.794486481712944
        ]
      }
    },
    {
      "type": "Feature",
      "properties": {
        "norad_id": 32711,
        "name": "GPS BIIRM-6 (PRN 07)",
        "group": "gps-ops",
        "lat": 32.59118585180436,
        "lon": -176.0606501389396,
        "alt_km": 20669.859505045595,
        "timestamp": "2025-12-27T16:33:30.481136+00:00",
        "meta_object_name": "GPS BIIRM-6 (PRN 07)",
        "meta_object_id": "2008-012A",
        "meta_epoch": "2025-12-26T15:12:37.851552",
        "meta_mean_motion": 2.00566161,
        "meta_eccentricity": 0.02030689,
        "meta_inclination": 54.4786,
        "meta_ra_of_asc_node": 156.8183,
        "meta_arg_of_pericenter": 245.1136,
        "meta_mean_anomaly": 112.7544,
        "meta_ephemeris_type": 0,
        "meta_classification_type": "U",
        "meta_norad_cat_id": 32711,
        "meta_element_set_no": 999,
        "meta_rev_at_epoch": 13029,
        "meta_bstar": 0,
        "meta_mean_motion_dot": 1.07e-06,
        "meta_mean_motion_ddot": 0,
        "tle_line1": "1 32711U 08012A   25360.63377143  .00000107  00000+0  00000+0 0  9991",
        "tle_line2": "2 32711  54.4786 156.8183 0203068 245.1136 112.7544  2.00566161130299"
      },
      "geometry": {
        "type": "Point",
        "coordinates": [
          -176.0606501389396,
          32.59118585180436
        ]
      }
    },
    {
      "type": "Feature",
      "properties": {
        "norad_id": 35752,
        "name": "GPS BIIRM-8 (PRN 05)",
        "group": "gps-ops",
        "lat": 45.9894421935742,
        "lon": 78.29086753529707,
        "alt_km": 20049.018626812627,
        "timestamp": "2025-12-27T16:33:30.481147+00:00",
        "meta_object_name": "GPS BIIRM-8 (PRN 05)",
        "meta_object_id": "2009-043A",
        "meta_epoch": "2025-12-26T02:26:22.079616",
        "meta_mean_motion": 2.00564782,
        "meta_eccentricity": 0.00515557,
        "meta_inclination": 56.1002,
        "meta_ra_of_asc_node": 34.2563,
        "meta_arg_of_pericenter": 81.6915,
        "meta_mean_anomaly": 271.8027,
        "meta_ephemeris_type": 0,
        "meta_classification_type": "U",
        "meta_norad_cat_id": 35752,
        "meta_element_set_no": 999,
        "meta_rev_at_epoch": 11988,
        "meta_bstar": 0,
        "meta_mean_motion_dot": -5.1e-07,
        "meta_mean_motion_ddot": 0,
        "tle_line1": "1 35752U 09043A   25360.10164444 -.00000051  00000+0  00000+0 0  9993",
        "tle_line2": "2 35752  56.1002  34.2563 0051555  81.6915 271.8027  2.00564782119880"
      },
      "geometry": {
        "type": "Point",
        "coordinates": [
          78.29086753529707,
          45.9894421935742
        ]
      }
    },
    {
      "type": "Feature",
      "properties": {
        "norad_id": 36585,
        "name": "GPS BIIF-1  (PRN 25)",
        "group": "gps-ops",
        "lat": 0.3920289560670709,
        "lon": 35.199388141016456,
        "alt_km": 20317.940888024496,
        "timestamp": "2025-12-27T16:33:30.481158+00:00",
        "meta_object_name": "GPS BIIF-1  (PRN 25)",
        "meta_object_id": "2010-022A",
        "meta_epoch": "2025-12-27T03:27:39.235104",
        "meta_mean_motion": 2.00553872,
        "meta_eccentricity": 0.01266459,
        "meta_inclination": 54.298,
        "meta_ra_of_asc_node": 215.4929,
        "meta_arg_of_pericenter": 65.2561,
        "meta_mean_anomaly": 78.9222,
        "meta_ephemeris_type": 0,
        "meta_classification_type": "U",
        "meta_norad_cat_id": 36585,
        "meta_element_set_no": 999,
        "meta_rev_at_epoch": 11414,
        "meta_bstar": 0,
        "meta_mean_motion_dot": 8.9e-07,
        "meta_mean_motion_ddot": 0,
        "tle_line1": "1 36585U 10022A   25361.14420411  .00000089  00000+0  00000+0 0  9991",
        "tle_line2": "2 36585  54.2980 215.4929 0126645  65.2561  78.9222  2.00553872114141"
      },
      "geometry": {
        "type": "Point",
        "coordinates": [
          35.199388141016456,
          0.3920289560670709
        ]
      }
    }
  ]
}